"address_id","address","address2","district","city_id","postal_code","phone","location","last_update"
1.00,"47 MySakila Drive",,"Alberta",300.00,"","","POINT (-112.8185647 49.6999986)",9/25/2014 22:30:27
2.00,"28 MySQL Boulevard",,"QLD",576.00,"","","POINT (153.1408538 -27.6333361)",9/25/2014 22:30:09
3.00,"23 Workhaven Lane",,"Alberta",300.00,"","14033335568","POINT (-112.8185673 49.6999951)",9/25/2014 22:30:27
4.00,"1411 Lillydale Drive",,"QLD",576.00,"","6172235589","POINT (153.1913094 -27.6333373)",9/25/2014 22:30:09
5.00,"1913 Hanoi Way","","Nagasaki",463.00,"35200","28303384290","POINT (129.7227851 33.1591726)",9/25/2014 22:31:53
6.00,"1121 Loja Avenue","","California",449.00,"17886","838635286649","POINT (-117.2897714 34.1083428)",9/25/2014 22:34:01
7.00,"692 Joliet Street","","Attika",38.00,"83579","448477190408","POINT (23.7162294 37.9794508)",9/25/2014 22:31:07
8.00,"1566 Inegl Manor","","Mandalay",349.00,"53561","705814003527","POINT (95.3884368 21.4600272)",9/25/2014 22:32:18
9.00,"53 Idfu Parkway","","Nantou",361.00,"42399","10655648674","POINT (120.6638785 23.9156685)",9/25/2014 22:33:16
10.00,"1795 Santiago de Compostela Way","","Texas",295.00,"18743","860452626434","POINT (-99.5075448 27.5064117)",9/25/2014 22:33:55
11.00,"900 Santiago de Compostela Parkway","","Central Serbia",280.00,"93896","716571220373","POINT (0 0)",9/25/2014 22:34:11
12.00,"478 Joliet Way","","Hamilton",200.00,"77948","657282285970","POINT (175.2833399 -37.7833313)",9/25/2014 22:32:22
13.00,"613 Korolev Drive","","Masqat",329.00,"45844","380657522649","POINT (58.5922971 23.6138798)",9/25/2014 22:32:29
14.00,"1531 Sal Drive","","Esfahan",162.00,"53628","648856936185","POINT (51.6746246 32.6524674)",9/25/2014 22:31:36
15.00,"1542 Tarlac Parkway","","Kanagawa",440.00,"1027","635297277345","POINT (139.3589644 35.5557889)",9/25/2014 22:31:53
16.00,"808 Bhopal Manor","","Haryana",582.00,"10672","465887807014","POINT (0 0)",9/25/2014 22:31:30
17.00,"270 Amroha Parkway","","Osmaniye",384.00,"29610","695479687538","POINT (36.2477824 37.0741756)",9/25/2014 22:33:27
18.00,"770 Bydgoszcz Avenue","","California",120.00,"16266","517338314235","POINT (-121.2810649 38.7071296)",9/25/2014 22:33:47
19.00,"419 Iligan Lane","","Madhya Pradesh",76.00,"72878","990911107354","POINT (77.4028938 23.2546953)",9/25/2014 22:31:13
20.00,"360 Toulouse Parkway","","England",495.00,"54308","949312333307","POINT (0.7143363 51.5378203)",9/25/2014 22:33:40
21.00,"270 Toulon Boulevard","","Kalmykia",156.00,"81766","407752414682","POINT (44.2558374 46.3077803)",9/25/2014 22:32:48
22.00,"320 Brest Avenue","","Kaduna",252.00,"43331","747791594069","POINT (7.4382858 10.5222412)",9/25/2014 22:32:25
23.00,"1417 Lancaster Avenue","","Northern Cape",267.00,"72192","272572357893","POINT (24.7623254 -28.7322674)",9/25/2014 22:33:03
24.00,"1688 Okara Way","","Nothwest Border Prov",327.00,"21954","144453869132","POINT (0 0)",9/25/2014 22:32:30
25.00,"262 A Corua (La Corua) Parkway","","Dhaka",525.00,"34418","892775750063","POINT (89.9165584 24.2498482)",9/25/2014 22:30:12
26.00,"28 Charlotte Amalie Street","","Rabat-Sal-Zammour-Z",443.00,"37551","161968374323","POINT (0 0)",9/25/2014 22:32:16
27.00,"1780 Hino Boulevard","","Liepaja",303.00,"7716","902731229323","POINT (21.0166781 56.5166715)",9/25/2014 22:31:58
28.00,"96 Tafuna Way","","Crdoba",128.00,"99865","934730187245","POINT (0 0)",9/25/2014 22:30:05
29.00,"934 San Felipe de Puerto Plata Street","","Sind",472.00,"99780","196495945706","POINT (68.6378981 27.9570677)",9/25/2014 22:32:31
30.00,"18 Duisburg Boulevard","","",121.00,"58327","998009777982","POINT (0 0)",9/25/2014 22:31:08
31.00,"217 Botshabelo Place","","Southern Mindanao",138.00,"49521","665356572025","POINT (0 0)",9/25/2014 22:32:36
32.00,"1425 Shikarpur Manor","","Bihar",346.00,"65599","678220867005","POINT (86.4735203 25.3755655)",9/25/2014 22:31:20
33.00,"786 Aurora Avenue","","Yamaguchi",474.00,"65750","18461860151","POINT (130.9570667 33.9587914)",9/25/2014 22:31:53
34.00,"1668 Anpolis Street","","Taipei",316.00,"50199","525255540978","POINT (0 0)",9/25/2014 22:33:15
35.00,"33 Gorontalo Way","","West Bengali",257.00,"30348","745994947458","POINT (88.3747238 22.6711153)",9/25/2014 22:31:18
36.00,"176 Mandaluyong Place","","Uttar Pradesh",239.00,"65213","627705991774","POINT (78.5822145 25.4544634)",9/25/2014 22:31:17
37.00,"127 Purnea (Purnia) Manor","","Piemonte",17.00,"79388","911872220378","POINT (8.6100757 44.9092442)",9/25/2014 22:31:42
38.00,"61 Tama Street","","Okayama",284.00,"94065","708403338270","POINT (133.7666798 34.5833369)",9/25/2014 22:31:49
39.00,"391 Callao Drive","","Midi-Pyrnes",544.00,"34021","440512153169","POINT (0 0)",9/25/2014 22:31:01
40.00,"334 Munger (Monghyr) Lane","","Markazi",31.00,"38145","481183273622","POINT (49.6891697 34.0917421)",9/25/2014 22:31:36
41.00,"1440 Fukuyama Loop","","Henan",362.00,"47929","912257250465","POINT (112.5327806 32.9947239)",9/25/2014 22:30:40
42.00,"269 Cam Ranh Parkway","","Chisinau",115.00,"34689","489783829737","POINT (28.8575834 47.0055601)",9/25/2014 22:32:15
43.00,"306 Antofagasta Place","","Esprito Santo",569.00,"3989","378318851631","POINT (0 0)",9/25/2014 22:30:23
44.00,"671 Graz Street","","Oriental",353.00,"94399","680768868518","POINT (-2.9335289 35.1681312)",9/25/2014 22:32:16
45.00,"42 Brindisi Place","","Yerevan",586.00,"16744","42384721397","POINT (44.5136157 40.1811198)",9/25/2014 22:30:08
46.00,"1632 Bislig Avenue","","Nonthaburi",394.00,"61117","471675840679","POINT (100.4988397 13.9130104)",9/25/2014 22:33:20
47.00,"1447 Imus Way","","Tahiti",167.00,"48942","539758313890","POINT (-149.6843672 -17.5546957)",9/25/2014 22:31:02
48.00,"1998 Halifax Drive","","Lipetsk",308.00,"76022","177727722820","POINT (39.5707653 52.6031163)",9/25/2014 22:32:54
49.00,"1718 Valencia Street","","Antofagasta",27.00,"37359","675292816413","POINT (-70.3954856 -23.6523691)",9/25/2014 22:30:29
50.00,"46 Pjatigorsk Lane","","Moscow (City)",343.00,"23616","262076994845","POINT (37.5386455 55.7488297)",9/25/2014 22:32:55
51.00,"686 Garland Manor","","Cear",247.00,"52535","69493378813","POINT (0 0)",9/25/2014 22:30:19
52.00,"909 Garland Manor","","Tatarstan",367.00,"69367","705800322606","POINT (51.8244755 55.6365792)",9/25/2014 22:32:55
53.00,"725 Isesaki Place","","Mekka",237.00,"74428","876295323994","POINT (39.1979758 21.5423826)",9/25/2014 22:33:00
54.00,"115 Hidalgo Parkway","","Khartum",379.00,"80168","307703950263","POINT (32.4777359 15.6445381)",9/25/2014 22:33:11
55.00,"1135 Izumisano Parkway","","California",171.00,"48150","171822533480","POINT (-117.4350521 34.0922301)",9/25/2014 22:33:50
56.00,"939 Probolinggo Loop","","Galicia",1.00,"4166","680428310138","POINT (0 0)",9/25/2014 22:33:08
57.00,"17 Kabul Boulevard","","Chiba",355.00,"38594","697760867968","POINT (139.9026668 35.8563057)",9/25/2014 22:31:51
58.00,"1964 Allappuzha (Alleppey) Street","","Yamaguchi",227.00,"48980","920811325222","POINT (132.2220908 34.1629706)",9/25/2014 22:31:47
59.00,"1697 Kowloon and New Kowloon Loop","","Moskova",49.00,"57807","499352017190","POINT (0 0)",9/25/2014 22:32:47
60.00,"1668 Saint Louis Place","","Tahiti",397.00,"39072","347487831378","POINT (-149.5665635 -17.5373362)",9/25/2014 22:31:02
61.00,"943 Tokat Street","","Vaduz",560.00,"45428","889318963672","POINT (9.5215498 47.1415115)",9/25/2014 22:31:58
62.00,"1114 Liepaja Street","","Sarawak",282.00,"69226","212869228936","POINT (110.3333389 1.5570314)",9/25/2014 22:32:00
63.00,"1213 Ranchi Parkway","","Karnataka",350.00,"94352","800024380485","POINT (766456911 13.5639657)",9/25/2014 22:31:21
64.00,"81 Hodeida Way","","Rajasthan",231.00,"55561","250767749542","POINT (75.7878198 26.9196216)",9/25/2014 22:31:17
65.00,"915 Ponce Place","","Basel-Stadt",56.00,"83980","1395251317","POINT (7.5732756 47.5583998)",9/25/2014 22:33:12
66.00,"1717 Guadalajara Lane","","Missouri",441.00,"85505","914090181665","POINT (-90.1978931 38.6272726)",9/25/2014 22:33:59
67.00,"1214 Hanoi Way","","Nebraska",306.00,"67055","491001136577","POINT (-96.6669636 40.8194939)",9/25/2014 22:33:56
68.00,"1966 Amroha Avenue","","Sichuan",139.00,"70385","333489324603","POINT (107.5009216 31.2159254)",9/25/2014 22:30:32
69.00,"698 Otsu Street","","Cayenne",105.00,"71110","409983924481","POINT (-52.3333399 4.9333377)",9/25/2014 22:31:02
70.00,"1150 Kimchon Manor","","Skne ln",321.00,"96109","663449333709","POINT (0 0)",9/25/2014 22:33:11
71.00,"1586 Guaruj Place","","Hunan",579.00,"5135","947233365992","POINT (112.9985807 27.8519136)",9/25/2014 22:30:46
72.00,"57 Arlington Manor","","Madhya Pradesh",475.00,"48960","990214419142","POINT (77.6514276 25.4308235)",9/25/2014 22:31:27
73.00,"1031 Daugavpils Parkway","","Bchar",63.00,"59025","107137400143","POINT (0 0)",9/25/2014 22:29:59
74.00,"1124 Buenaventura Drive","","Mekka",13.00,"6856","407733804223","POINT (0 0)",9/25/2014 22:32:59
75.00,"492 Cam Ranh Street","","Eastern Visayas",61.00,"50805","565018274456","POINT (124.8006205 10.6785254)",9/25/2014 22:32:34
76.00,"89 Allappuzha (Alleppey) Manor","","National Capital Reg",517.00,"75444","255800440636","POINT (0 0)",9/25/2014 22:32:39
77.00,"1947 Poos de Caldas Boulevard","","Chiayi",114.00,"60951","427454485876","POINT (120.3928389 23.4617851)",9/25/2014 22:33:14
78.00,"1206 Dos Quebradas Place","","So Paulo",431.00,"20207","241832790687","POINT (0 0)",9/25/2014 22:30:21
79.00,"1551 Rampur Lane","","Changhwa",108.00,"72394","251164340471","POINT (0 0)",9/25/2014 22:33:14
80.00,"602 Paarl Street","","Pavlodar",402.00,"98889","896314772871","POINT (77.0043801 52.2740146)",9/25/2014 22:31:55
81.00,"1692 Ede Loop","","So Paulo",30.00,"9223","918711376618","POINT (0 0)",9/25/2014 22:30:16
82.00,"936 Salzburg Lane","","Uttar Pradesh",425.00,"96709","875756771675","POINT (81.2449939 26.2191025)",9/25/2014 22:31:24
83.00,"586 Tete Way","","Kanagawa",256.00,"1079","18581624103","POINT (139.5502887 35.3088962)",9/25/2014 22:31:48
84.00,"1888 Kabul Drive","","Oyo & Osun",217.00,"20936","701457319790","POINT (0 0)",9/25/2014 22:32:24
85.00,"320 Baiyin Parkway","","Mahajanga",319.00,"37307","223664661973","POINT (46.3166743 -15.7166741)",9/25/2014 22:31:59
86.00,"927 Baha Blanca Parkway","","Krim",479.00,"9495","821972242086","POINT (34.1107975 44.9571971)",9/25/2014 22:33:33
87.00,"929 Tallahassee Loop","","Gauteng",497.00,"74671","800716535041","POINT (28.4194136 -26.2533214)",9/25/2014 22:33:06
88.00,"125 Citt del Vaticano Boulevard","","Puebla",40.00,"67912","48417642933","POINT (-98.4361382 18.9081595)",9/25/2014 22:32:02
89.00,"1557 Ktahya Boulevard","","England",88.00,"88002","720998247660","POINT (-1.7520692 53.7939173)",9/25/2014 22:33:36
90.00,"870 Ashqelon Loop","","Songkhla",489.00,"84931","135117278909","POINT (100.5951996 7.1988262)",9/25/2014 22:33:20
91.00,"1740 Portoviejo Avenue","","Sucre",480.00,"29932","198123170793","POINT (-75.3977888 9.3047285)",9/25/2014 22:30:53
92.00,"1942 Ciparay Parkway","","Cheju",113.00,"82624","978987363654","POINT (126.5461176 33.4016753)",9/25/2014 22:33:06
93.00,"1926 El Alto Avenue","","Buenos Aires",289.00,"75543","846225459260","POINT (-57.9545302 -34.9214582)",9/25/2014 22:30:05
94.00,"1952 Chatsworth Drive","","Guangdong",332.00,"25958","991562402283","POINT (116.1337663 24.3536429)",9/25/2014 22:30:40
95.00,"1370 Le Mans Avenue","","Brunei and Muara",53.00,"52163","345679835036","POINT (114.9480606 4.9402974)",9/25/2014 22:30:23
96.00,"984 Effon-Alaiye Avenue","","Gois",183.00,"17119","132986892228","POINT (0 0)",9/25/2014 22:30:17
97.00,"832 Nakhon Sawan Manor","","Inner Mongolia",592.00,"49021","275595571388","POINT (122.7166725 486172957)",9/25/2014 22:30:50
98.00,"152 Kitwe Parkway","","Caraga",82.00,"53182","835433605312","POINT (126.3163958 8.2152827)",9/25/2014 22:32:35
99.00,"1697 Tanauan Lane","","Punjab",399.00,"22870","4764773857","POINT (75.6449709 32.3316749)",9/25/2014 22:31:22
100.00,"1308 Arecibo Way","","Georgia",41.00,"30695","6171054059","POINT (-81.9748497 33.4709748)",9/25/2014 22:33:43
101.00,"1599 Plock Drive","","Tete",534.00,"71986","817248913162","POINT (33.5866733 -16.1563948)",9/25/2014 22:32:18
102.00,"669 Firozabad Loop","","Abu Dhabi",12.00,"92265","412903167998","POINT (55.7605667 24.1916795)",9/25/2014 22:33:35
103.00,"588 Vila Velha Manor","","Kyongsangbuk",268.00,"51540","333339908719","POINT (0 0)",9/25/2014 22:33:07
104.00,"1913 Kamakura Place","","Lipetsk",238.00,"97287","942570536750","POINT (0 0)",9/25/2014 22:32:49
105.00,"733 Mandaluyong Place","","Asir",2.00,"77459","196568435814","POINT (42.5052814 18.2163937)",9/25/2014 22:32:59
106.00,"659 Vaduz Drive","","Ha Darom",34.00,"49708","709935135487","POINT (0 0)",9/25/2014 22:31:40
107.00,"1177 Jelets Way","","Kwara & Kogi",220.00,"3305","484292626944","POINT (4.5546462 8.5497914)",9/25/2014 22:32:24
108.00,"1386 Yangor Avenue","","Provence-Alpes-Cte",543.00,"80720","449216226468","POINT (0 0)",9/25/2014 22:31:01
109.00,"454 Nakhon Sawan Boulevard","","Funafuti",173.00,"76383","963887147572","POINT (179.1941789 -8.5242561)",9/25/2014 22:33:31
110.00,"1867 San Juan Bautista Tuxtepec Avenue","","Ivanovo",225.00,"78311","547003310357","POINT (40.9713993 56.9971905)",9/25/2014 22:32:48
111.00,"1532 Dzerzinsk Way","","Buenos Aires",334.00,"9599","330838016880","POINT (-58.7282854 -34.6658341)",9/25/2014 22:30:06
112.00,"1002 Ahmadnagar Manor","","Mxico",213.00,"93026","371490777743","POINT (0 0)",9/25/2014 22:32:07
113.00,"682 Junan Way","","North West",273.00,"30418","622255216127","POINT (26.6667296 -26.8521304)",9/25/2014 22:33:04
114.00,"804 Elista Drive","","Hubei",159.00,"61069","379804592943","POINT (109.4833346 30.3716555)",9/25/2014 22:30:33
115.00,"1378 Alvorada Avenue","","Distrito Federal",102.00,"75834","272234298332","POINT (-66.8791948 10.4880184)",9/25/2014 22:34:03
116.00,"793 Cam Ranh Avenue","","California",292.00,"87057","824370924746","POINT (-118.1367498 34.6980486)",9/25/2014 22:33:55
117.00,"1079 Tel Aviv-Jaffa Boulevard","","Sucre",132.00,"10885","358178933857","POINT (0 0)",9/25/2014 22:34:04
118.00,"442 Rae Bareli Place","","Nordrhein-Westfalen",148.00,"24321","886636413768","POINT (6.7651616 51.4324703)",9/25/2014 22:31:04
119.00,"1107 Nakhon Sawan Avenue","","Mxico",365.00,"75149","867546627903","POINT (0 0)",9/25/2014 22:32:11
120.00,"544 Malm Parkway","","Central Java",403.00,"63502","386759646229","POINT (109.3666757 -6.9424081)",9/25/2014 22:31:34
121.00,"1967 Sincelejo Place","","Gujarat",176.00,"73644","577812616052","POINT (72.6833332 23.2166788)",9/25/2014 22:31:16
122.00,"333 Goinia Way","","Texas",185.00,"78625","909029256431","POINT (-96.9977802 32.7459686)",9/25/2014 22:33:51
123.00,"1987 Coacalco de Berriozbal Loop","","al-Qalyubiya",476.00,"96065","787654415858","POINT (31.2505396 30.1251153)",9/25/2014 22:30:58
124.00,"241 Mosul Lane","","Risaralda",147.00,"76157","765345144779","POINT (-75.6672757 4.8391685)",9/25/2014 22:30:52
125.00,"211 Chiayi Drive","","Uttar Pradesh",164.00,"58186","665993880048","POINT (79.0215973 26.7778423)",9/25/2014 22:31:15
126.00,"1175 Tanauan Way","","Lima",305.00,"64615","937222955822","POINT (-77.0282484 -12.0431865)",9/25/2014 22:32:33
127.00,"117 Boa Vista Way","","Uttar Pradesh",566.00,"6804","677976133614","POINT (83.0104161 25.3166821)",9/25/2014 22:31:29
128.00,"848 Tafuna Manor","","Ktahya",281.00,"45142","614935229095","POINT (0 0)",9/25/2014 22:33:27
129.00,"569 Baicheng Lane","","Gauteng",85.00,"60304","490211944645","POINT (28.2595823 -26.2119716)",9/25/2014 22:33:02
130.00,"1666 Qomsheh Drive","","So Paulo",410.00,"66255","582835362905","POINT (0 0)",9/25/2014 22:30:20
131.00,"801 Hagonoy Drive","","Smolensk",484.00,"8439","237426099212","POINT (32.0401193 54.7818296)",9/25/2014 22:32:57
132.00,"1050 Garden Grove Avenue","","Slaskie",236.00,"4999","973047364353","POINT (0 0)",9/25/2014 22:32:42
133.00,"1854 Tieli Street","","Shandong",302.00,"15819","509492324775","POINT (115.9776621 36.4559676)",9/25/2014 22:30:39
134.00,"758 Junan Lane","","Gois",190.00,"82639","935448624185","POINT (0 0)",9/25/2014 22:30:18
135.00,"1752 So Leopoldo Parkway","","Taka-Karpatia",345.00,"14014","252265130067","POINT (0 0)",9/25/2014 22:33:32
136.00,"898 Belm Manor","","Free State",87.00,"49757","707169393853","POINT (26.7052868 -29.2701604)",9/25/2014 22:33:02
137.00,"261 Saint Louis Way","","Coahuila de Zaragoza",541.00,"83401","321944036800","POINT (0 0)",9/25/2014 22:32:13
138.00,"765 Southampton Drive","","al-Qalyubiya",421.00,"4285","23712411567","POINT (31.2056807 30.1792216)",9/25/2014 22:30:57
139.00,"943 Johannesburg Avenue","","Maharashtra",417.00,"5892","90921003005","POINT (73.8553565 18.5195797)",9/25/2014 22:31:24
140.00,"788 Atinsk Street","","Karnataka",211.00,"81691","146497509724","POINT (758133303 15.4501336)",9/25/2014 22:31:17
141.00,"1749 Daxian Place","","Gelderland",29.00,"11044","963369996279","POINT (5.9694471 52.2194571)",9/25/2014 22:32:20
142.00,"1587 Sullana Lane","","Inner Mongolia",207.00,"85769","468060467018","POINT (111.6522231 40.8105654)",9/25/2014 22:30:35
143.00,"1029 Dzerzinsk Manor","","Ynlin",542.00,"57519","33173584456","POINT (0 0)",9/25/2014 22:33:16
144.00,"1666 Beni-Mellal Place","","Tennessee",123.00,"13377","9099941466","POINT (-87.3594586 36.5297793)",9/25/2014 22:33:48
145.00,"928 Jaffna Loop","","Hiroshima",172.00,"93762","581852137991","POINT (133.3666742 34.4833354)",9/25/2014 22:31:45
146.00,"483 Ljubertsy Parkway","","Scotland",149.00,"60562","581174211853","POINT (-2.9748951 56.4691327)",9/25/2014 22:33:36
147.00,"374 Bat Yam Boulevard","","Kilis",266.00,"97700","923261616249","POINT (37.1154257 36.7161151)",9/25/2014 22:33:26
148.00,"1027 Songkhla Manor","","Minsk",340.00,"30861","563660187896","POINT (0 0)",9/25/2014 22:30:13
149.00,"999 Sanaa Loop","","Gauteng",491.00,"3439","918032330119","POINT (28.0991912 -25.4728869)",9/25/2014 22:33:05
150.00,"879 Newcastle Way","","Michigan",499.00,"90732","206841104594","POINT (-83.0302359 42.5803102)",9/25/2014 22:34:01
151.00,"1337 Lincoln Parkway","","Saitama",555.00,"99457","597815221267","POINT (139.6452896 35.8616754)",9/25/2014 22:31:55
152.00,"1952 Pune Lane","","Saint-Denis",442.00,"92150","354615066969","POINT (0 0)",9/25/2014 22:32:46
153.00,"782 Mosul Street","","Massachusetts",94.00,"25545","885899703621","POINT (-71.0183899 42.0834357)",9/25/2014 22:33:46
154.00,"781 Shimonoseki Drive","","Michoacn de Ocampo",202.00,"95444","632316273199","POINT (0 0)",9/25/2014 22:32:06
155.00,"1560 Jelets Boulevard","","Shandong",291.00,"77777","189446090264","POINT (117.6569432 36.1927835)",9/25/2014 22:30:38
156.00,"1963 Moscow Place","","Assam",354.00,"64863","761379480249","POINT (92.6922571 26.3503746)",9/25/2014 22:31:21
157.00,"456 Escobar Way","","Jakarta Raya",232.00,"36061","719202533520","POINT (106.8451399 -6.2146236)",9/25/2014 22:31:33
158.00,"798 Cianjur Avenue","","Shanxi",590.00,"76990","499408708580","POINT (110.9927885 35.0230678)",9/25/2014 22:30:49
159.00,"185 Novi Sad Place","","Bern",72.00,"41778","904253967161","POINT (7.4474467 46.9480957)",9/25/2014 22:33:13
160.00,"1367 Yantai Manor","","Ondo & Ekiti",381.00,"21294","889538496300","POINT (5.0833356 7.1666732)",9/25/2014 22:32:26
161.00,"1386 Nakhon Sawan Boulevard","","Pyongyang-si",420.00,"53502","368899174225","POINT (125.7543291 39.0338568)",9/25/2014 22:32:28
162.00,"369 Papeete Way","","North Carolina",187.00,"66639","170117068815","POINT (-79.7919837 36.0726408)",9/25/2014 22:33:52
163.00,"1440 Compton Place","","North Austria",307.00,"81037","931059836497","POINT (0 0)",9/25/2014 22:30:10
164.00,"1623 Baha Blanca Manor","","Moskova",310.00,"81511","149981248346","POINT (0 0)",9/25/2014 22:32:54
165.00,"97 Shimoga Avenue","","Tel Aviv",533.00,"44660","177167004331","POINT (34.7805719 32.0808879)",9/25/2014 22:31:41
166.00,"1740 Le Mans Loop","","Pays de la Loire",297.00,"22853","168476538960","POINT (0.2925425 489535594)",9/25/2014 22:31:01
167.00,"1287 Xiangfan Boulevard","","Gifu",253.00,"57844","819416131190","POINT (136.8666778 35.4166765)",9/25/2014 22:31:48
168.00,"842 Salzburg Lane","","Adana",529.00,"3313","697151428760","POINT (35.6654367 37.2994811)",9/25/2014 22:33:29
169.00,"154 Tallahassee Loop","","Xinxiang",199.00,"62250","935508855935","POINT (0 0)",9/25/2014 22:30:34
170.00,"710 San Felipe del Progreso Avenue","","Lilongwe",304.00,"76901","843801144113","POINT (33.7872564 -13.9669289)",9/25/2014 22:31:59
171.00,"1540 Wroclaw Drive","","Maharashtra",107.00,"62686","182363341674","POINT (79.2960722 19.9471171)",9/25/2014 22:31:14
172.00,"475 Atinsk Way","","Gansu",240.00,"59571","201705577290","POINT (102.1937901 38.5006258)",9/25/2014 22:30:36
173.00,"1294 Firozabad Drive","","Jiangxi",407.00,"70618","161801569569","POINT (113.8700962 27.5781343)",9/25/2014 22:30:40
174.00,"1877 Ezhou Lane","","Rajasthan",550.00,"63337","264541743403","POINT (73.6918333 24.5711714)",9/25/2014 22:31:28
175.00,"316 Uruapan Street","","Perak",223.00,"58194","275788967899","POINT (101.0829914 4.5841352)",9/25/2014 22:31:59
176.00,"29 Pyongyang Loop","","Batman",58.00,"47753","734780743462","POINT (41.1322155 37.8873816)",9/25/2014 22:33:23
177.00,"1010 Klerksdorp Way","","Steiermark",186.00,"6802","493008546874","POINT (15.4512761 47.0666727)",9/25/2014 22:30:10
178.00,"1848 Salala Boulevard","","Miranda",373.00,"25220","48265851133","POINT (-66.7760937 10.1164909)",9/25/2014 22:34:04
179.00,"431 Xiangtan Avenue","","Kerala",18.00,"4854","230250973122","POINT (0 0)",9/25/2014 22:31:10
180.00,"757 Rustenburg Avenue","","Skikda",483.00,"89668","506134035434","POINT (6.9092172 36.8761757)",9/25/2014 22:30:01
181.00,"146 Johannesburg Way","","Tamaulipas",330.00,"54132","953689007081","POINT (-97.5041713 25.8797291)",9/25/2014 22:32:09
182.00,"1891 Rizhao Boulevard","","So Paulo",456.00,"47288","391065549876","POINT (0 0)",9/25/2014 22:30:21
183.00,"1089 Iwatsuki Avenue","","Kirov",270.00,"35109","866092335135","POINT (0 0)",9/25/2014 22:32:50
184.00,"1410 Benin City Parkway","","Risaralda",405.00,"29747","104150372603","POINT (-75.6961154 4.8133305)",9/25/2014 22:30:52
185.00,"682 Garden Grove Place","","Tennessee",333.00,"67497","72136330362","POINT (-90.0489828 35.1495346)",9/25/2014 22:33:57
186.00,"533 al-Ayn Boulevard","","California",126.00,"8862","662227486184","POINT (-118.2200788 33.8958567)",9/25/2014 22:33:48
187.00,"1839 Szkesfehrvr Parkway","","Gois",317.00,"55709","947468818183","POINT (0 0)",9/25/2014 22:30:20
188.00,"741 Ambattur Manor","","Noord-Brabant",438.00,"43310","302590383819","POINT (5.3041706 51.6991772)",9/25/2014 22:32:21
189.00,"927 Barcelona Street","","Chaharmahal va Bakht",467.00,"65121","951486492670","POINT (0 0)",9/25/2014 22:31:38
190.00,"435 0 Way","","West Bengali",195.00,"74750","760171523969","POINT (88.1097549 22.0604684)",9/25/2014 22:31:16
191.00,"140 Chiayi Parkway","","Sumy",506.00,"38982","855863906434","POINT (34.8002989 50.9216315)",9/25/2014 22:33:34
192.00,"1166 Changhwa Street","","Caraga",62.00,"58852","650752094490","POINT (125.7675248 8.7561117)",9/25/2014 22:32:34
193.00,"891 Novi Sad Manor","","Ontario",383.00,"5379","247646995453","POINT (-78.8495705 43.9001243)",9/25/2014 22:30:28
194.00,"605 Rio Claro Parkway","","Tabora",513.00,"49348","352469351088","POINT (32.8266393 -5.0162258)",9/25/2014 22:33:18
195.00,"1077 San Felipe de Puerto Plata Place","","Rostov-na-Donu",369.00,"65387","812824036424","POINT (0 0)",9/25/2014 22:32:56
196.00,"9 San Miguel de Tucumn Manor","","Uttar Pradesh",169.00,"90845","956188728558","POINT (78.4018032 27.1494196)",9/25/2014 22:31:15
197.00,"447 Surakarta Loop","","Nyanza",271.00,"10428","940830176580","POINT (0 0)",9/25/2014 22:31:56
198.00,"345 Oshawa Boulevard","","Tokyo-to",204.00,"32114","104491201771","POINT (139.4002884 35.6730684)",9/25/2014 22:31:45
199.00,"1792 Valle de la Pascua Place","","Nordrhein-Westfalen",477.00,"15540","419419591240","POINT (8.0243129 50.8748198)",9/25/2014 22:31:06
200.00,"1074 Binzhou Manor","","Baden-Wrttemberg",325.00,"36490","331132568928","POINT (0 0)",9/25/2014 22:31:05
201.00,"817 Bradford Loop","","Jiangsu",109.00,"89459","264286442804","POINT (119.9540109 31.7735997)",9/25/2014 22:30:31
202.00,"955 Bamenda Way","","Ondo & Ekiti",218.00,"1545","768481779568","POINT (0 0)",9/25/2014 22:32:24
203.00,"1149 A Corua (La Corua) Boulevard","","Haiphong",194.00,"95824","470884141195","POINT (106.6834545 20.8648139)",9/25/2014 22:34:06
204.00,"387 Mwene-Ditu Drive","","Ahal",35.00,"8073","764477681869","POINT (58.3833386 37.9575146)",9/25/2014 22:33:30
205.00,"68 Molodetno Manor","","Nordrhein-Westfalen",575.00,"4662","146640639760","POINT (7.3525872 51.4436286)",9/25/2014 22:31:06
206.00,"642 Nador Drive","","Maharashtra",77.00,"3924","369050085652","POINT (75.7817558 21.0465825)",9/25/2014 22:31:13
207.00,"1688 Nador Lane","","Sulawesi Utara",184.00,"61613","652218196731","POINT (122.3166772 0.7726177)",9/25/2014 22:31:32
208.00,"1215 Pyongyang Parkway","","Usak",557.00,"25238","646237101779","POINT (29.4058642 38.6735189)",9/25/2014 22:33:30
209.00,"1679 Antofagasta Street","","Alto Paran",122.00,"86599","905903574913","POINT (0 0)",9/25/2014 22:32:32
210.00,"1304 s-Hertogenbosch Way","","Santa Catarina",83.00,"10925","90336226227","POINT (-49.0661132 -26.9194492)",9/25/2014 22:30:16
211.00,"850 Salala Loop","","Kitaa",371.00,"10800","403404780639","POINT (0 0)",9/25/2014 22:31:07
212.00,"624 Oshawa Boulevard","","West Bengali",51.00,"89959","49677664184","POINT (88.7773227 25.2209978)",9/25/2014 22:31:11
213.00,"43 Dadu Avenue","","Rajasthan",74.00,"4855","95666951770","POINT (74.6352311 25.3464477)",9/25/2014 22:31:12
214.00,"751 Lima Loop","","Aden",7.00,"99405","756460337785","POINT (45.0366738 12.7794459)",9/25/2014 22:34:08
215.00,"1333 Haldia Street","","Jilin",174.00,"82161","408304391718","POINT (124.8166714 45.1833321)",9/25/2014 22:30:33
216.00,"660 Jedda Boulevard","","Washington",65.00,"25053","168758068397","POINT (-122.2006874 47.6103871)",9/25/2014 22:33:45
217.00,"1001 Miyakonojo Lane","","Taizz",518.00,"67924","584316724815","POINT (44.0209143 13.5795289)",9/25/2014 22:34:11
218.00,"226 Brest Manor","","California",508.00,"2299","785881412500","POINT (-122.0363565 37.3688354)",9/25/2014 22:34:02
219.00,"1229 Valencia Parkway","","Haskovo",498.00,"99124","352679173732","POINT (0 0)",9/25/2014 22:30:24
220.00,"1201 Qomsheh Manor","","Gois",28.00,"21464","873492228462","POINT (0 0)",9/25/2014 22:30:15
221.00,"866 Shivapuri Manor","","Uttar Pradesh",448.00,"22474","778502731092","POINT (78.5668976 28.5832347)",9/25/2014 22:31:26
222.00,"1168 Najafabad Parkway","","Kabol",251.00,"40301","886649065861","POINT (69.1723396 34.5281317)",9/25/2014 22:29:59
223.00,"1244 Allappuzha (Alleppey) Place","","Buenos Aires",567.00,"20657","991802825778","POINT (0 0)",9/25/2014 22:30:08
224.00,"1842 Luzinia Boulevard","","Zanzibar West",593.00,"94420","706878974831","POINT (39.1979342 -6.1639465)",9/25/2014 22:33:19
225.00,"1926 Gingoog Street","","Sisilia",511.00,"22824","469738825391","POINT (15.2762835 37.0841577)",9/25/2014 22:31:44
226.00,"810 Palghat (Palakkad) Boulevard","","Jaroslavl",235.00,"73431","516331171356","POINT (39.8736803 57.6298723)",9/25/2014 22:32:49
227.00,"1820 Maring Parkway","","Punjab",324.00,"88307","99760893676","POINT (73.4843114 32.5833916)",9/25/2014 22:32:30
228.00,"60 Poos de Caldas Street","","Rajasthan",243.00,"82338","963063788669","POINT (73.0059404 26.2684113)",9/25/2014 22:31:18
229.00,"1014 Loja Manor","","Tamil Nadu",22.00,"66851","460795526514","POINT (80.1615253 13.0981817)",9/25/2014 22:31:10
230.00,"201 Effon-Alaiye Way","","Asuncin",37.00,"64344","684192903087","POINT (0 0)",9/25/2014 22:32:31
231.00,"430 Alessandria Loop","","Saarland",439.00,"47446","669828224459","POINT (0 0)",9/25/2014 22:31:06
232.00,"754 Valencia Place","","Phnom Penh",406.00,"87911","594319417514","POINT (104.9160101 11.5624572)",9/25/2014 22:30:25
233.00,"356 Olomouc Manor","","Gois",26.00,"93323","22326410776","POINT (0 0)",9/25/2014 22:30:15
234.00,"1256 Bislig Boulevard","","Botosani",86.00,"50598","479007229460","POINT (26.6666762 47.7515488)",9/25/2014 22:32:46
235.00,"954 Kimchon Place","","West Bengali",559.00,"42420","541327526474","POINT (0 0)",9/25/2014 22:31:28
236.00,"885 Yingkou Manor","","Kaduna",596.00,"31390","588964509072","POINT (7.7227418 11.1112878)",9/25/2014 22:32:28
237.00,"1736 Cavite Place","","Qina",216.00,"98775","431770603551","POINT (0 0)",9/25/2014 22:30:56
238.00,"346 Skikda Parkway","","Hawalli",233.00,"90628","630424482919","POINT (0 0)",9/25/2014 22:31:57
239.00,"98 Stara Zagora Boulevard","","Valle",96.00,"76448","610173756082","POINT (-77.0311671 3.8801538)",9/25/2014 22:30:51
240.00,"1479 Rustenburg Boulevard","","Southern Tagalog",527.00,"18727","727785483194","POINT (0 0)",9/25/2014 22:32:40
241.00,"647 A Corua (La Corua) Street","","Chollanam",357.00,"36971","792557457753","POINT (0 0)",9/25/2014 22:33:07
242.00,"1964 Gijn Manor","","Karnataka",473.00,"14408","918119601885","POINT (75.5679104 13.9315793)",9/25/2014 22:31:26
243.00,"47 Syktyvkar Lane","","West Java",118.00,"22236","63937119031","POINT (106.7586171 -6.6230602)",9/25/2014 22:31:31
244.00,"1148 Saarbrcken Parkway","","Fukushima",226.00,"1921","137773001988","POINT (140.8833374 37.0547352)",9/25/2014 22:31:47
245.00,"1103 Bilbays Parkway","","Hubei",578.00,"87660","279979529227","POINT (112.1447918 32.0422301)",9/25/2014 22:30:45
246.00,"1246 Boksburg Parkway","","Hebei",422.00,"28349","890283544295","POINT (119.5883327 39.9316729)",9/25/2014 22:30:41
247.00,"1483 Pathankot Street","","Tucumn",454.00,"37288","686015532180","POINT (0 0)",9/25/2014 22:30:06
248.00,"582 Papeete Loop","","Central Visayas",294.00,"27722","569868543137","POINT (123.9494442 10.3102867)",9/25/2014 22:32:38
249.00,"300 Junan Street","","Kyonggi",553.00,"81314","890289150158","POINT (0 0)",9/25/2014 22:33:08
250.00,"829 Grand Prairie Way","","Paran",328.00,"6461","741070712873","POINT (0 0)",9/25/2014 22:30:20
251.00,"1473 Changhwa Parkway","","Mxico",124.00,"75933","266798132374","POINT (0 0)",9/25/2014 22:32:03
252.00,"1309 Weifang Street","","Florida",520.00,"57338","435785045362","POINT (-84.2807393 30.4382689)",9/25/2014 22:34:02
253.00,"1760 Oshawa Manor","","Tianjin",535.00,"38140","56257502250","POINT (117.1766766 39.1422277)",9/25/2014 22:30:43
254.00,"786 Stara Zagora Way","","Oyo & Osun",390.00,"98332","716256596301","POINT (3.9333328 7.8531924)",9/25/2014 22:32:27
255.00,"1966 Tonghae Street","","Anhalt Sachsen",198.00,"36481","567359279425","POINT (125127014 51.5661974)",9/25/2014 22:31:05
256.00,"1497 Yuzhou Drive","","England",312.00,"3433","246810237916","POINT (-0.1257486 51.5085304)",9/25/2014 22:33:37
258.00,"752 Ondo Loop","","Miyazaki",338.00,"32474","134673576619","POINT (131.0666764 31.7333371)",9/25/2014 22:31:50
259.00,"1338 Zalantun Lane","","Minas Gerais",413.00,"45403","840522972766","POINT (0 0)",9/25/2014 22:30:21
260.00,"127 Iwakuni Boulevard","","Central Luzon",192.00,"20777","987442542471","POINT (120.7327195 14.8341331)",9/25/2014 22:32:37
261.00,"51 Laredo Avenue","","Sagaing",342.00,"68146","884536620568","POINT (95.1358394 22.1085695)",9/25/2014 22:32:18
262.00,"771 Yaound Manor","","Sofala",64.00,"86768","245477603573","POINT (34.8388913 -19.8436187)",9/25/2014 22:32:17
263.00,"532 Toulon Street","","Santiago",460.00,"69517","46871694740","POINT (-70.6970306 19.4517425)",9/25/2014 22:30:55
264.00,"1027 Banjul Place","","West Bengali",197.00,"50390","538241037443","POINT (88.4185932 22.9321815)",9/25/2014 22:31:16
265.00,"1158 Mandi Bahauddin Parkway","","Shanxi",136.00,"98484","276555730211","POINT (113.2913974 40.0936132)",9/25/2014 22:30:32
266.00,"862 Xintai Lane","","Cagayan Valley",548.00,"30065","265153400632","POINT (121.7269485 17.6130638)",9/25/2014 22:32:41
267.00,"816 Cayenne Parkway","","Manab",414.00,"93629","282874611748","POINT (0 0)",9/25/2014 22:30:56
268.00,"1831 Nam Dinh Loop","","National Capital Reg",323.00,"51990","322888976727","POINT (0 0)",9/25/2014 22:32:38
269.00,"446 Kirovo-Tepetsk Lane","","Osaka",203.00,"19428","303967439816","POINT (135.6176571 34.6711229)",9/25/2014 22:31:45
270.00,"682 Halisahar Place","","Severn Morava",378.00,"20536","475553436330","POINT (0 0)",9/25/2014 22:30:54
271.00,"1587 Loja Manor","","Salzburg",447.00,"5410","621625204422","POINT (13.0439929 47.7994114)",9/25/2014 22:30:10
272.00,"1762 Paarl Parkway","","Hunan",298.00,"53928","192459639410","POINT (111.4294489 27.6880608)",9/25/2014 22:30:39
273.00,"1519 Ilorin Place","","Kerala",395.00,"49298","357445645426","POINT (76.6562581 10.7744394)",9/25/2014 22:31:21
274.00,"920 Kumbakonam Loop","","California",446.00,"75090","685010736240","POINT (-121.6555701 36.6777408)",9/25/2014 22:34:00
275.00,"906 Goinia Way","","Wielkopolskie",255.00,"83565","701767622697","POINT (18.0910245 51.7610909)",9/25/2014 22:32:42
276.00,"1675 Xiangfan Manor","","Tamil Nadu",283.00,"11763","271149517630","POINT (79.3912412 10.9620955)",9/25/2014 22:31:20
277.00,"85 San Felipe de Puerto Plata Drive","","Shandong",584.00,"46063","170739645687","POINT (121.4408172 37.4764973)",9/25/2014 22:30:48
278.00,"144 South Hill Loop","","Guanajuato",445.00,"2012","45387294817","POINT (-101.1915495 20.5719604)",9/25/2014 22:32:11
279.00,"1884 Shikarpur Avenue","","Haryana",263.00,"85548","959949395183","POINT (76.9883944 29.6900906)",9/25/2014 22:31:19
280.00,"1980 Kamjanets-Podilskyi Street","","Illinois",404.00,"89502","874337098891","POINT (-89.5889971 40.6936559)",9/25/2014 22:33:57
281.00,"1944 Bamenda Way","","Michigan",573.00,"24645","75975221996","POINT (-83.0277992 42.4775472)",9/25/2014 22:34:03
282.00,"556 Baybay Manor","","Oyo & Osun",374.00,"55802","363982224739","POINT (4.2644189 8.1567516)",9/25/2014 22:32:25
283.00,"457 Tongliao Loop","","Bursa",222.00,"56254","880756161823","POINT (0 0)",9/25/2014 22:33:25
284.00,"600 Bradford Street","","East Azerbaidzan",514.00,"96204","117592274996","POINT (46.2919332 38.0829411)",9/25/2014 22:31:40
285.00,"1006 Santa Brbara dOeste Manor","","Ondo & Ekiti",389.00,"36229","85059738746","POINT (5.5868183 7.1962061)",9/25/2014 22:32:26
286.00,"1308 Sumy Loop","","Fujian",175.00,"30657","583021225407","POINT (119.3061118 26.0613964)",9/25/2014 22:30:34
287.00,"1405 Chisinau Place","","Ponce",411.00,"8160","62781725285","POINT (-66.6140669 18.0110803)",9/25/2014 22:32:45
288.00,"226 Halifax Street","","Xinxiang",277.00,"58492","790651020929","POINT (0 0)",9/25/2014 22:30:38
289.00,"1279 Udine Parkway","","Edo & Delta",69.00,"75860","195003555232","POINT (5.6274942 6.3350511)",9/25/2014 22:32:23
290.00,"1336 Benin City Drive","","Shiga",386.00,"46044","341242939532","POINT (135.8683324 35.0044473)",9/25/2014 22:31:53
291.00,"1155 Liaocheng Place","","Oyo & Osun",152.00,"22650","558236142492","POINT (0 0)",9/25/2014 22:32:23
292.00,"1993 Tabuk Lane","","Tamil Nadu",522.00,"64221","648482415405","POINT (80.1270701 12.9246028)",9/25/2014 22:31:27
293.00,"86 Higashiosaka Lane","","Guanajuato",563.00,"33768","957128697225","POINT (-101.1891745 20.3932178)",9/25/2014 22:32:14
294.00,"1912 Allende Manor","","Kowloon and New Kowl",279.00,"58124","172262454487","POINT (0 0)",9/25/2014 22:31:09
295.00,"544 Tarsus Boulevard","","Gurico",562.00,"53145","892523334","POINT (0 0)",9/25/2014 22:34:05
296.00,"1936 Cuman Avenue","","Virginia",433.00,"61195","976798660411","POINT (-79.9414311 37.2709788)",9/25/2014 22:33:58
297.00,"1192 Tongliao Street","","Sharja",470.00,"19065","350970907017","POINT (55.4120655 25.3373777)",9/25/2014 22:33:35
298.00,"44 Najafabad Way","","Baskimaa",146.00,"61391","96604821070","POINT (0 0)",9/25/2014 22:33:08
299.00,"32 Pudukkottai Lane","","Ohio",140.00,"38834","967274728547","POINT (-84.1916155 39.7589524)",9/25/2014 22:33:49
300.00,"661 Chisinau Lane","","Pietari",274.00,"8856","816436065431","POINT (0 0)",9/25/2014 22:32:51
301.00,"951 Stara Zagora Manor","","Punjab",400.00,"98573","429925609431","POINT (76.4026681 30.3271521)",9/25/2014 22:31:22
302.00,"922 Vila Velha Loop","","Maharashtra",9.00,"4085","510737228015","POINT (74.7384344 19.0945716)",9/25/2014 22:31:10
303.00,"898 Jining Lane","","Pohjois-Pohjanmaa",387.00,"40070","161643343536","POINT (25.4681696 65.0123605)",9/25/2014 22:31:00
304.00,"1635 Kuwana Boulevard","","Hiroshima",205.00,"52137","710603868323","POINT (132.4593736 34.3962703)",9/25/2014 22:31:46
305.00,"41 El Alto Parkway","","Maharashtra",398.00,"56883","51917807050","POINT (76.7708194 19.2685546)",9/25/2014 22:31:22
306.00,"1883 Maikop Lane","","Kaliningrad",254.00,"68469","96110042435","POINT (20.5109506 54.7064978)",9/25/2014 22:32:50
307.00,"1908 Gaziantep Place","","Liaoning",536.00,"58979","108053751300","POINT (123.6058384 42.4130612)",9/25/2014 22:30:43
308.00,"687 Alessandria Parkway","","Sanaa",455.00,"57587","407218522294","POINT (44.2066796 15.3547228)",9/25/2014 22:34:10
309.00,"827 Yuncheng Drive","","Callao",99.00,"79047","504434452842","POINT (-77.1181422 -12.0565969)",9/25/2014 22:32:32
310.00,"913 Coacalco de Berriozbal Loop","","Texas",33.00,"42141","262088367001","POINT (-97.1080797 32.7356954)",9/25/2014 22:33:43
311.00,"715 So Bernardo do Campo Lane","","Kedah",507.00,"84804","181179321332","POINT (100.4877252 5.6471605)",9/25/2014 22:32:00
312.00,"1354 Siegen Street","","Rio de Janeiro",25.00,"80184","573441801529","POINT (-44.3180635 -23.0066772)",9/25/2014 22:30:15
313.00,"1191 Sungai Petani Boulevard","","Missouri",262.00,"9668","983259819766","POINT (-94.5785792 39.0997303)",9/25/2014 22:33:54
314.00,"1224 Huejutla de Reyes Boulevard","","Lombardia",91.00,"70923","806016930576","POINT (10.2147236 45.5355809)",9/25/2014 22:31:43
315.00,"543 Bergamo Avenue","","Minas Gerais",215.00,"59686","103602195112","POINT (0 0)",9/25/2014 22:30:18
316.00,"746 Joliet Lane","","Kursk",286.00,"94878","688485191923","POINT (36.1873575 51.7373341)",9/25/2014 22:32:52
317.00,"780 Kimberley Way","","Tabuk",515.00,"17032","824396883951","POINT (36.5715155 28.3998035)",9/25/2014 22:33:00
318.00,"1774 Yaound Place","","Hubei",166.00,"91400","613124286867","POINT (114.7797975 30.4883229)",9/25/2014 22:30:33
319.00,"1957 Yantai Lane","","So Paulo",490.00,"59255","704948322302","POINT (0 0)",9/25/2014 22:30:22
320.00,"1542 Lubumbashi Boulevard","","Tel Aviv",57.00,"62472","508800331065","POINT (34.7518577 32.0237941)",9/25/2014 22:31:41
321.00,"651 Pathankot Loop","","Maharashtra",336.00,"59811","139378397418","POINT (74.6466372 16.8241727)",9/25/2014 22:31:20
322.00,"1359 Zhoushan Parkway","","Streymoyar",545.00,"29763","46568045367","POINT (0 0)",9/25/2014 22:30:59
323.00,"1769 Iwaki Lane","","Kujawsko-Pomorskie",97.00,"25787","556100547674","POINT (18.0076296 53.1235938)",9/25/2014 22:32:41
324.00,"1145 Vilnius Manor","","Mxico",451.00,"73170","674805712553","POINT (0 0)",9/25/2014 22:32:12
325.00,"1892 Nabereznyje Telny Lane","","Tutuila",516.00,"28396","478229987054","POINT (0 0)",9/25/2014 22:30:02
326.00,"470 Boksburg Street","","Central",81.00,"97960","908029859266","POINT (84.8773507 27.0104304)",9/25/2014 22:32:19
327.00,"1427 A Corua (La Corua) Place","","Buenos Aires",45.00,"85799","972574862516","POINT (0 0)",9/25/2014 22:30:04
328.00,"479 San Felipe del Progreso Avenue","","Morelos",130.00,"54949","869051782691","POINT (-98.9455577 18.8045961)",9/25/2014 22:32:04
329.00,"867 Benin City Avenue","","Henan",591.00,"78543","168884817145","POINT (113.4638946 34.1627839)",9/25/2014 22:30:50
330.00,"981 Kumbakonam Place","","Distrito Federal",89.00,"87611","829116184079","POINT (0 0)",9/25/2014 22:30:17
331.00,"1016 Iwakuni Street","","St George",269.00,"49833","961370847344","POINT (-61.2247516 13.1587251)",9/25/2014 22:32:59
332.00,"663 Baha Blanca Parkway","","Adana",5.00,"33463","834418779292","POINT (35.3288926 37.0016775)",9/25/2014 22:33:22
333.00,"1860 Taguig Loop","","West Java",119.00,"59550","38158430589","POINT (107.5908393 -6.9611164)",9/25/2014 22:31:32
334.00,"1816 Bydgoszcz Loop","","Dhaka",234.00,"64308","965273813662","POINT (89.9481296 24.9196508)",9/25/2014 22:30:12
335.00,"587 Benguela Manor","","Illinois",42.00,"91590","165450987037","POINT (-88.3200762 41.7605836)",9/25/2014 22:33:44
336.00,"430 Kumbakonam Drive","","Santa F",457.00,"28814","105470691550","POINT (-58.3772319 -34.6131591)",9/25/2014 22:30:07
337.00,"1838 Tabriz Lane","","Dhaka",143.00,"1195","38988715447","POINT (90.4074439 23.7104078)",9/25/2014 22:30:12
338.00,"431 Szkesfehrvr Avenue","","Baki",48.00,"57828","119501405123","POINT (49.8920185 40.3776798)",9/25/2014 22:30:11
339.00,"503 Sogamoso Loop","","Sumqayit",505.00,"49812","834626715837","POINT (49.6686177 40.5897257)",9/25/2014 22:30:11
340.00,"507 Smolensk Loop","","Sousse",492.00,"22971","80303246192","POINT (10.6369931 35.8253973)",9/25/2014 22:33:21
341.00,"1920 Weifang Avenue","","Uttar Pradesh",427.00,"15643","869507847714","POINT (79.0289576 28.8090428)",9/25/2014 22:31:25
342.00,"124 al-Manama Way","","Hiroshima",382.00,"52368","647899404952","POINT (133.2278006 34.4166734)",9/25/2014 22:31:52
343.00,"1443 Mardan Street","","Western Cape",392.00,"31483","231383037471","POINT (18.9655278 -33.7046881)",9/25/2014 22:33:05
344.00,"1909 Benguela Lane","","Henan",581.00,"19913","624138001031","POINT (113.8672267 35.3088968)",9/25/2014 22:30:47
345.00,"68 Ponce Parkway","","Hanoi",201.00,"85926","870635127812","POINT (105.8411713 21.0245089)",9/25/2014 22:34:06
346.00,"1217 Konotop Avenue","","Gelderland",151.00,"504","718917251754","POINT (5.6583352 52.0333321)",9/25/2014 22:32:20
347.00,"1293 Nam Dinh Way","","Roraima",84.00,"71583","697656479977","POINT (-60.6733335 2.8197248)",9/25/2014 22:30:17
348.00,"785 Vaduz Street","","Baja California",335.00,"36170","895616862749","POINT (-115.4544699 32.6278161)",9/25/2014 22:32:10
349.00,"1516 Escobar Drive","","Tongatapu",370.00,"46069","64536069371","POINT (-175.2018383 -21.1393845)",9/25/2014 22:33:20
350.00,"1628 Nagareyama Lane","","Central",453.00,"60079","20064292617","POINT (-57.5087974 -25.3396832)",9/25/2014 22:32:32
351.00,"1157 Nyeri Loop","","Adygea",320.00,"56380","262744791493","POINT (40.1058391 44.6077807)",9/25/2014 22:32:55
352.00,"1673 Tangail Drive","","Daugavpils",137.00,"26857","627924259271","POINT (26.5333303 55.8833321)",9/25/2014 22:31:57
353.00,"381 Kabul Way","","Taipei",209.00,"87272","55477302294","POINT (0 0)",9/25/2014 22:33:15
354.00,"953 Hodeida Street","","Southern Tagalog",221.00,"18841","53912826864","POINT (0 0)",9/25/2014 22:32:37
355.00,"469 Nakhon Sawan Street","","Tuvassia",531.00,"58866","689199636560","POINT (0 0)",9/25/2014 22:32:58
356.00,"1378 Beira Loop","","Krasnojarsk",597.00,"40792","840957664136","POINT (0 0)",9/25/2014 22:32:58
357.00,"1641 Changhwa Place","","Nord-Ouest",52.00,"37636","256546485220","POINT (10.1459725 5.9597163)",9/25/2014 22:30:25
358.00,"1698 Southport Loop","","Hidalgo",393.00,"49009","754358349853","POINT (-98.7332931 20.1169757)",9/25/2014 22:32:11
359.00,"519 Nyeri Manor","","So Paulo",461.00,"37650","764680915323","POINT (0 0)",9/25/2014 22:30:21
360.00,"619 Hunuco Avenue","","Shimane",331.00,"81508","142596392389","POINT (133.0505647 35.4722288)",9/25/2014 22:31:50
361.00,"45 Aparecida de Goinia Place","","Madhya Pradesh",464.00,"7431","650496654258","POINT (80.8248472 24.5822532)",9/25/2014 22:31:26
362.00,"482 Kowloon and New Kowloon Manor","","Bratislava",90.00,"97056","738968474939","POINT (17.1067496 48.1481638)",9/25/2014 22:33:02
363.00,"604 Bern Place","","Jharkhand",429.00,"5373","620719383725","POINT (85.3385674 23.3477771)",9/25/2014 22:31:25
364.00,"1623 Kingstown Drive","","Buenos Aires",20.00,"91299","296394569728","POINT (-58.3333333 -34.8333375)",9/25/2014 22:30:04
365.00,"1009 Zanzibar Lane","","Arecibo",32.00,"64875","102396298916","POINT (-66.7157391 18.4724507)",9/25/2014 22:32:45
366.00,"114 Jalib al-Shuyukh Manor","","Centre",585.00,"60440","845378657301","POINT (0 0)",9/25/2014 22:30:25
367.00,"1163 London Parkway","","Par",66.00,"6066","675120358494","POINT (0 0)",9/25/2014 22:30:16
368.00,"1658 Jastrzebie-Zdrj Loop","","Central",372.00,"96584","568367775448","POINT (37.8734742 -0.0993589)",9/25/2014 22:31:56
369.00,"817 Laredo Avenue","","Jalisco",188.00,"77449","151249681135","POINT (-103.3918271 20.6668204)",9/25/2014 22:32:06
370.00,"1565 Tangail Manor","","Okinawa",377.00,"45750","634445428822","POINT (126.6687194 25.7722563)",9/25/2014 22:31:52
371.00,"1912 Emeishan Drive","","Balikesir",50.00,"33050","99883471275","POINT (27.8861139 39.6491766)",9/25/2014 22:33:22
372.00,"230 Urawa Drive","","Andhra Pradesh",8.00,"2738","166898395731","POINT (77.2753617 15.6250982)",9/25/2014 22:31:09
373.00,"1922 Miraj Way","","Esfahan",356.00,"13203","320471479776","POINT (51.3668958 32.6344247)",9/25/2014 22:31:37
374.00,"433 Florencia Street","","Chihuahua",250.00,"91330","561729882725","POINT (0 0)",9/25/2014 22:32:08
375.00,"1049 Matamoros Parkway","","Karnataka",191.00,"69640","960505250340","POINT (76.8378775 17.3376375)",9/25/2014 22:31:16
376.00,"1061 Ede Avenue","","Southern Tagalog",98.00,"57810","333390595558","POINT (0 0)",9/25/2014 22:32:35
377.00,"154 Oshawa Manor","","East Java",415.00,"72771","440365973660","POINT (113.2159708 -7.7543494)",9/25/2014 22:31:34
378.00,"1191 Tandil Drive","","Southern Tagalog",523.00,"6362","45554316010","POINT (0 0)",9/25/2014 22:32:40
379.00,"1133 Rizhao Avenue","","Pernambuco",572.00,"2800","600264533987","POINT (0 0)",9/25/2014 22:30:23
380.00,"1519 Santiago de los Caballeros Loop","","East Kasai",348.00,"22025","409315295763","POINT (0 0)",9/25/2014 22:30:53
381.00,"1618 Olomouc Manor","","Kurgan",285.00,"26385","96846695220","POINT (65.3333338 55.4523109)",9/25/2014 22:32:51
382.00,"220 Hidalgo Drive","","Kermanshah",265.00,"45298","342720754566","POINT (47.0656814 34.3141741)",9/25/2014 22:31:37
383.00,"686 Donostia-San Sebastin Lane","","Guangdong",471.00,"97390","71857599858","POINT (114.0683656 22.5455493)",9/25/2014 22:30:42
384.00,"97 Mogiljov Lane","","Gujarat",73.00,"89294","924815207181","POINT (72.1525264 21.7744509)",9/25/2014 22:31:11
385.00,"1642 Charlotte Amalie Drive","","Slaskie",549.00,"75442","821476736117","POINT (18.9664179 50.1371796)",9/25/2014 22:32:44
386.00,"1368 Maracabo Boulevard","","",493.00,"32716","934352415130","POINT (-63.0833345 18.1833393)",9/25/2014 22:30:03
387.00,"401 Sucre Boulevard","","New Hampshire",322.00,"25007","486395999608","POINT (-71.4547917 42.9956463)",9/25/2014 22:33:56
388.00,"368 Hunuco Boulevard","","Namibe",360.00,"17165","106439158941","POINT (12.1522211 -15.1961143)",9/25/2014 22:30:03
389.00,"500 Lincoln Parkway","","Jiangsu",210.00,"95509","550306965159","POINT (119.0191752 33.5886108)",9/25/2014 22:30:35
390.00,"102 Chapra Drive","","Ibaragi",521.00,"14073","776031833752","POINT (0 0)",9/25/2014 22:31:54
391.00,"1793 Meixian Place","","Hmelnytskyi",258.00,"33535","619966287415","POINT (0 0)",9/25/2014 22:33:31
392.00,"514 Ife Way","","Shaba",315.00,"69973","900235712074","POINT (0 0)",9/25/2014 22:30:53
393.00,"717 Changzhou Lane","","Southern Tagalog",104.00,"21615","426255288071","POINT (0 0)",9/25/2014 22:32:36
394.00,"753 Ilorin Avenue","","Sichuan",157.00,"3656","464511145118","POINT (103.3875589 29.5326767)",9/25/2014 22:30:32
395.00,"1337 Mit Ghamr Avenue","","Nakhon Sawan",358.00,"29810","175283210378","POINT (100.1371733 15.7047282)",9/25/2014 22:33:19
396.00,"767 Pyongyang Drive","","Osaka",229.00,"83536","667736124769","POINT (135.3368299 34.3739822)",9/25/2014 22:31:48
397.00,"614 Pak Kret Street","","Addis Abeba",6.00,"27796","47808359842","POINT (38.7468953 9.0249786)",9/25/2014 22:30:59
398.00,"954 Lapu-Lapu Way","","Moskova",278.00,"8816","737229003916","POINT (0 0)",9/25/2014 22:32:51
399.00,"331 Bydgoszcz Parkway","","Asturia",181.00,"966","537374465982","POINT (0 0)",9/25/2014 22:33:09
400.00,"1152 Citrus Heights Manor","","al-Qadarif",15.00,"5239","765957414528","POINT (35.3834416 14.0349313)",9/25/2014 22:33:11
401.00,"168 Cianjur Manor","","Saitama",228.00,"73824","679095087143","POINT (139.6850291 35.9522535)",9/25/2014 22:31:48
402.00,"616 Hagonoy Avenue","","Krasnojarsk",39.00,"46043","604177838256","POINT (0 0)",9/25/2014 22:32:47
403.00,"1190 0 Place","","Rio Grande do Sul",44.00,"10417","841876514789","POINT (-54.1069424 -31.3313942)",9/25/2014 22:30:16
404.00,"734 Bchar Place","","Punjab",375.00,"30586","280578750435","POINT (73.4458345 30.8080619)",9/25/2014 22:32:31
405.00,"530 Lausanne Lane","","Texas",135.00,"11067","775235029633","POINT (-96.8066733 32.7830646)",9/25/2014 22:33:49
406.00,"454 Patiala Lane","","Fukushima",276.00,"13496","794553031307","POINT (140.3833343 37.4679281)",9/25/2014 22:31:49
407.00,"1346 Mysore Drive","","Bretagne",92.00,"61507","516647474029","POINT (-4.4833319 48.4979204)",9/25/2014 22:31:00
408.00,"990 Etawah Loop","","Tamil Nadu",564.00,"79940","206169448769","POINT (76.9511624 10.3269123)",9/25/2014 22:31:29
409.00,"1266 Laredo Parkway","","Saitama",380.00,"7664","1483365694","POINT (139.6241343 35.9066539)",9/25/2014 22:31:52
410.00,"88 Nagaon Manor","","Buenos Aires",524.00,"86868","779461480495","POINT (-59.1331661 -37.3216706)",9/25/2014 22:30:07
411.00,"264 Bhimavaram Manor","","St Thomas",111.00,"54749","302526949177","POINT (0 0)",9/25/2014 22:34:08
412.00,"1639 Saarbrcken Drive","","North West",437.00,"9827","328494873422","POINT (27.2420868 -25.6675623)",9/25/2014 22:33:05
413.00,"692 Amroha Drive","","Northern",230.00,"35575","359478883004","POINT (80.0074283 9.6684518)",9/25/2014 22:33:10
414.00,"1936 Lapu-Lapu Parkway","","Bauchi & Gombe",141.00,"7122","653436985797","POINT (0 0)",9/25/2014 22:32:23
415.00,"432 Garden Grove Street","","Ontario",430.00,"65630","615964523510","POINT (-79.4372524 43.8711166)",9/25/2014 22:30:28
416.00,"1445 Carmen Parkway","","West Java",117.00,"70809","598912394463","POINT (107.0830663 -6.7725909)",9/25/2014 22:31:30
417.00,"791 Salinas Street","","Punjab",208.00,"40509","129953030512","POINT (75.9079937 31.5323868)",9/25/2014 22:31:17
418.00,"126 Acua Parkway","","West Bengali",71.00,"58888","480039662421","POINT (88.2515586 24.1047388)",9/25/2014 22:31:11
419.00,"397 Sunnyvale Avenue","","Guanajuato",19.00,"55566","680851640676","POINT (-100.7438977 20.9152845)",9/25/2014 22:32:01
420.00,"992 Klerksdorp Loop","","Utrecht",23.00,"33711","855290087237","POINT (5.3875453 52.1550813)",9/25/2014 22:32:19
421.00,"966 Arecibo Loop","","Sind",134.00,"94018","15273765306","POINT (67.7763138 26.7328704)",9/25/2014 22:32:30
422.00,"289 Santo Andr Manor","","al-Sharqiya",16.00,"72410","214976066017","POINT (0 0)",9/25/2014 22:32:59
423.00,"437 Chungho Drive","","Puerto Plata",450.00,"59489","491271355190","POINT (-70.6884507 19.7934458)",9/25/2014 22:30:55
424.00,"1948 Bayugan Parkway","","Bihar",264.00,"60622","987306329957","POINT (87.5704408 25.5385267)",9/25/2014 22:31:19
425.00,"1866 al-Qatif Avenue","","California",155.00,"89420","546793516940","POINT (-118.0275737 34.0686238)",9/25/2014 22:33:50
426.00,"1661 Abha Drive","","Tamil Nadu",416.00,"14400","270456873752","POINT (78.8214191 10.3812871)",9/25/2014 22:31:23
427.00,"1557 Cape Coral Parkway","","Hubei",293.00,"46875","368284120423","POINT (111.6677871 32.3858334)",9/25/2014 22:30:38
428.00,"1727 Matamoros Place","","Sawhaj",465.00,"78813","129673677866","POINT (31.6947808 26.5569546)",9/25/2014 22:30:57
429.00,"1269 Botosani Manor","","Guangdong",468.00,"47394","736517327853","POINT (115.3475866 22.7819959)",9/25/2014 22:30:42
430.00,"355 Vitria de Santo Anto Way","","Oaxaca",452.00,"81758","548003849552","POINT (-96.1253502 18.0883465)",9/25/2014 22:32:13
431.00,"1596 Acua Parkway","","Jharkhand",418.00,"70425","157133457169","POINT (0 0)",9/25/2014 22:31:24
432.00,"259 Ipoh Drive","","So Paulo",189.00,"64964","419009857119","POINT (0 0)",9/25/2014 22:30:18
433.00,"1823 Hoshiarpur Lane","","Komi",510.00,"33191","307133768620","POINT (50.8099404 61.6764246)",9/25/2014 22:32:57
434.00,"1404 Taguig Drive","","Okayama",547.00,"87212","572068624538","POINT (133.9988561 35.0521549)",9/25/2014 22:31:54
435.00,"740 Udaipur Lane","","Nizni Novgorod",150.00,"33505","497288595103","POINT (0 0)",9/25/2014 22:32:47
436.00,"287 Cuautla Boulevard","","Chuquisaca",501.00,"72736","82619513349","POINT (-65.2627454 -19.0333211)",9/25/2014 22:30:14
437.00,"1766 Almirante Brown Street","","KwaZulu-Natal",364.00,"63104","617567598243","POINT (29.9318991 -27.7579638)",9/25/2014 22:33:04
438.00,"596 Huixquilucan Place","","Nampula",351.00,"65892","342709348083","POINT (0 0)",9/25/2014 22:32:17
439.00,"1351 Aparecida de Goinia Parkway","","Northern Mindanao",391.00,"41775","959834530529","POINT (123.8333385 8.1559817)",9/25/2014 22:32:38
440.00,"722 Bradford Lane","","Shandong",249.00,"90920","746251338300","POINT (118.8288902 35.1711181)",9/25/2014 22:30:37
441.00,"983 Santa F Way","","British Colombia",565.00,"47472","145720452260","POINT (-123.1193449 49.2496694)",9/25/2014 22:30:28
442.00,"1245 Ibirit Way","","La Romana",290.00,"40926","331888642162","POINT (-68.9728505 18.4273397)",9/25/2014 22:30:54
443.00,"1836 Korla Parkway","","Copperbelt",272.00,"55405","689681677428","POINT (28.2132382 -12.8024325)",9/25/2014 22:34:11
444.00,"231 Kaliningrad Place","","Lombardia",70.00,"57833","575081026569","POINT (9.6672105 45.6960161)",9/25/2014 22:31:42
445.00,"495 Bhimavaram Lane","","Maharashtra",144.00,"3","82088937724","POINT (74.7773508 20.9025165)",9/25/2014 22:31:15
446.00,"1924 Shimonoseki Drive","","Batna",59.00,"52625","406784385440","POINT (6.1741493 35.5559713)",9/25/2014 22:29:59
447.00,"105 Dzerzinsk Manor","","Inner Mongolia",540.00,"48570","240776414296","POINT (122.2652882 43.6125443)",9/25/2014 22:30:44
448.00,"614 Denizli Parkway","","Rio Grande do Sul",486.00,"29444","876491807547","POINT (0 0)",9/25/2014 22:30:22
449.00,"1289 Belm Boulevard","","Tartumaa",530.00,"88306","237368926031","POINT (26.7250976 58.3806266)",9/25/2014 22:30:58
450.00,"203 Tambaram Street","","Buenos Aires",161.00,"73942","411549550611","POINT (-58.7550405 -34.3333355)",9/25/2014 22:30:05
451.00,"1704 Tambaram Manor","","West Bengali",554.00,"2834","39463554936","POINT (88.0989894 22.4756422)",9/25/2014 22:31:28
452.00,"207 Cuernavaca Loop","","Tatarstan",352.00,"52671","782900030287","POINT (0 0)",9/25/2014 22:32:55
453.00,"319 Springs Loop","","Baijeri",160.00,"99552","72524459905","POINT (11.0078372 49.5909984)",9/25/2014 22:31:05
454.00,"956 Nam Dinh Manor","","Kerman",481.00,"21872","474047727727","POINT (55.6809634 29.4513771)",9/25/2014 22:31:39
455.00,"1947 Paarl Way","","Central Java",509.00,"23636","834061016202","POINT (110.8316759 -7.5561124)",9/25/2014 22:31:35
456.00,"814 Simferopol Loop","","Sinaloa",154.00,"48745","524567129902","POINT (-108.7493103 26.1917411)",9/25/2014 22:32:05
457.00,"535 Ahmadnagar Manor","","Abu Dhabi",3.00,"41136","985109775584","POINT (54.3666737 24.4666776)",9/25/2014 22:33:34
458.00,"138 Caracas Boulevard","","Zulia",326.00,"16790","974433019532","POINT (0 0)",9/25/2014 22:34:04
459.00,"251 Florencia Drive","","Michoacn de Ocampo",556.00,"16119","118011831565","POINT (0 0)",9/25/2014 22:32:13
460.00,"659 Gatineau Boulevard","","La Paz",153.00,"28587","205524798287","POINT (-68.1833381 -16.4833304)",9/25/2014 22:30:13
461.00,"1889 Valparai Way","","Ziguinchor",600.00,"75559","670370974122","POINT (-16.2719429 12.5833364)",9/25/2014 22:33:01
462.00,"1485 Bratislava Place","","Illinois",435.00,"83183","924663855568","POINT (-89.0945901 42.2711396)",9/25/2014 22:33:59
463.00,"935 Aden Boulevard","","Central Java",532.00,"64709","335052544020","POINT (109.1402792 -6.8694969)",9/25/2014 22:31:35
464.00,"76 Kermanshah Manor","","Esfahan",423.00,"23343","762361821578","POINT (51.8668877 32.0089105)",9/25/2014 22:31:37
465.00,"734 Tanshui Avenue","","Caquet",170.00,"70664","366776723320","POINT (0 0)",9/25/2014 22:30:52
466.00,"118 Jaffna Loop","","Northern Mindanao",182.00,"10447","325526730021","POINT (125.1166743 8.8333397)",9/25/2014 22:32:36
467.00,"1621 Tongliao Avenue","","Irkutsk",558.00,"22173","209342540247","POINT (103.6452848 52.7519467)",9/25/2014 22:32:58
468.00,"1844 Usak Avenue","","Nova Scotia",196.00,"84461","164414772677","POINT (-63.5723905 44.6453389)",9/25/2014 22:30:27
469.00,"1872 Toulon Loop","","OHiggins",428.00,"7939","928809465153","POINT (0 0)",9/25/2014 22:30:30
470.00,"1088 Ibirit Place","","Jalisco",595.00,"88502","49084281333","POINT (-103.3847998 20.7235691)",9/25/2014 22:32:15
471.00,"1322 Mosul Parkway","","Shandong",145.00,"95400","268053970382","POINT (118.4916571 37.4627174)",9/25/2014 22:30:32
472.00,"1447 Chatsworth Place","","Chihuahua",129.00,"41545","769370126331","POINT (0 0)",9/25/2014 22:32:04
473.00,"1257 Guadalajara Street","","Karnataka",78.00,"33599","195337700615","POINT (75.7153712 16.8244248)",9/25/2014 22:31:14
474.00,"1469 Plock Lane","","Galicia",388.00,"95835","622884741180","POINT (-7.8640742 42.3366955)",9/25/2014 22:33:09
475.00,"434 Ourense (Orense) Manor","","Hodeida",206.00,"14122","562370137426","POINT (42.9545201 14.7978152)",9/25/2014 22:34:10
476.00,"270 Tambaram Parkway","","Gauteng",244.00,"9668","248446668735","POINT (28.0436389 -26.2022763)",9/25/2014 22:33:03
477.00,"1786 Salinas Place","","Nam Ha",359.00,"66546","206060652238","POINT (105.9713198 20.5529795)",9/25/2014 22:34:07
478.00,"1078 Stara Zagora Drive","","Aceh",301.00,"69221","932992626595","POINT (97.1507436 5.1801172)",9/25/2014 22:31:33
479.00,"1854 Okara Boulevard","","Drenthe",158.00,"42123","131912793873","POINT (6.9069415 52.7791718)",9/25/2014 22:32:21
480.00,"421 Yaound Street","","Sumy",385.00,"11363","726875628268","POINT (0 0)",9/25/2014 22:33:33
481.00,"1153 Allende Way","","Qubec",179.00,"20336","856872225376","POINT (0 0)",9/25/2014 22:30:26
482.00,"808 Naala-Porto Parkway","","England",500.00,"41060","553452430707","POINT (-2.1576169 53.4097913)",9/25/2014 22:33:41
483.00,"632 Usolje-Sibirskoje Parkway","","Ha Darom",36.00,"73085","667648979883","POINT (0 0)",9/25/2014 22:31:41
484.00,"98 Pyongyang Boulevard","","Ohio",11.00,"88749","191958435142","POINT (-81.5190107 41.0814413)",9/25/2014 22:33:42
485.00,"984 Novoterkassk Loop","","Gaziantep",180.00,"28165","435118527255","POINT (37.3825106 37.0594402)",9/25/2014 22:33:25
486.00,"64 Korla Street","","Mwanza",347.00,"25145","510383179153","POINT (32.9676702 -2.5166733)",9/25/2014 22:33:17
487.00,"1785 So Bernardo do Campo Street","","Veracruz",125.00,"71182","684529463244","POINT (-94.4424279 18.1334662)",9/25/2014 22:32:04
488.00,"698 Jelets Boulevard","","Denizli",142.00,"2596","975185523021","POINT (29.0875335 37.7741774)",9/25/2014 22:33:24
489.00,"1297 Alvorada Parkway","","Ningxia",587.00,"11839","508348602835","POINT (106.2730691 38.4680603)",9/25/2014 22:30:49
490.00,"1909 Dayton Avenue","","Guangdong",469.00,"88513","702955450528","POINT (113.5833382 24.8921893)",9/25/2014 22:30:42
491.00,"1789 Saint-Denis Parkway","","Coahuila de Zaragoza",4.00,"8268","936806643983","POINT (0 0)",9/25/2014 22:32:01
492.00,"185 Mannheim Lane","","Stavropol",408.00,"23661","589377568313","POINT (43.0594427 44.0486119)",9/25/2014 22:32:56
493.00,"184 Mandaluyong Street","","Baja California Sur",288.00,"94239","488425406814","POINT (-110.3097351 24.1381188)",9/25/2014 22:32:09
494.00,"591 Sungai Petani Drive","","Okayama",376.00,"46400","37247325001","POINT (133.9350327 34.6616774)",9/25/2014 22:31:51
495.00,"656 Matamoros Drive","","Boyac",487.00,"19489","17305839123","POINT (0 0)",9/25/2014 22:30:53
496.00,"775 ostka Drive","","al-Daqahliya",337.00,"22358","171973024401","POINT (31.2589957 30.7145954)",9/25/2014 22:30:57
497.00,"1013 Tabuk Boulevard","","West Bengali",261.00,"96203","158399646978","POINT (88.4284972 22.9599825)",9/25/2014 22:31:19
498.00,"319 Plock Parkway","","Istanbul",504.00,"26101","854259976812","POINT (29.2706722 40.9607239)",9/25/2014 22:33:28
499.00,"1954 Kowloon and New Kowloon Way","","Chimborazo",434.00,"63667","898559280434","POINT (0 0)",9/25/2014 22:30:56
500.00,"362 Rajkot Lane","","Gansu",47.00,"98030","962020153680","POINT (104.1702318 36.5469698)",9/25/2014 22:30:31
501.00,"1060 Tandil Lane","","Shandong",432.00,"72349","211256301880","POINT (119.4552851 35.4275658)",9/25/2014 22:30:41
502.00,"1515 Korla Way","","England",589.00,"57197","959467760895","POINT (-1.0827111 53.9576345)",9/25/2014 22:33:42
503.00,"1416 San Juan Bautista Tuxtepec Avenue","","Zufar",444.00,"50592","144206758053","POINT (54.0923796 17.0150586)",9/25/2014 22:32:29
504.00,"1 Valle de Santiago Avenue","","Apulia",93.00,"86208","465897838272","POINT (17.9360783 40.6321519)",9/25/2014 22:31:43
505.00,"519 Brescia Parkway","","East Java",318.00,"69504","793996678771","POINT (111.5239078 -7.6298531)",9/25/2014 22:31:33
506.00,"414 Mandaluyong Street","","Lubelskie",314.00,"16370","52709222667","POINT (22.5666769 51.2559205)",9/25/2014 22:32:43
507.00,"1197 Sokoto Boulevard","","West Bengali",478.00,"87687","868602816371","POINT (88.4285155 26.7100489)",9/25/2014 22:31:27
508.00,"496 Celaya Drive","","Nagano",552.00,"90797","759586584889","POINT (138.2816187 36.4026557)",9/25/2014 22:31:54
509.00,"786 Matsue Way","","Illinois",245.00,"37469","111177206479","POINT (-88.0834631 41.5251914)",9/25/2014 22:33:54
510.00,"48 Maracabo Place","","Central Luzon",519.00,"1570","82671830126","POINT (120.9192945 15.5883603)",9/25/2014 22:32:39
511.00,"1152 al-Qatif Lane","","Kalimantan Barat",412.00,"44816","131370665218","POINT (109.3219947 -0.0310935)",9/25/2014 22:31:34
512.00,"1269 Ipoh Avenue","","Eskisehir",163.00,"54674","402630109080","POINT (30.5205685 39.7766793)",9/25/2014 22:33:24
513.00,"758 Korolev Parkway","","Andhra Pradesh",568.00,"75474","441628280920","POINT (80.6304914 16.5192844)",9/25/2014 22:31:29
514.00,"1747 Rustenburg Place","","Bihar",110.00,"51369","442673923363","POINT (84.7308906 25.7814406)",9/25/2014 22:31:14
515.00,"886 Tonghae Place","","Volgograd",259.00,"19450","711928348157","POINT (0 0)",9/25/2014 22:32:50
516.00,"1574 Goinia Boulevard","","Heilongjiang",502.00,"39529","59634255214","POINT (126.9950837 46.6395441)",9/25/2014 22:30:43
517.00,"548 Uruapan Street","","Ontario",312.00,"35653","879347453467","POINT (0 0)",9/25/2014 22:33:38
519.00,"962 Tama Loop","","",583.00,"65952","282667506728","POINT (166.9104802 -0.5353641)",9/25/2014 22:32:19
520.00,"1778 Gijn Manor","","Hubei",594.00,"35156","288910576761","POINT (112.7541772 32.1272296)",9/25/2014 22:30:50
521.00,"568 Dhule (Dhulia) Loop","","Coquimbo",127.00,"92568","602101369463","POINT (-719213205 -30.7540619)",9/25/2014 22:30:30
522.00,"1768 Udine Loop","","Battambang",60.00,"32347","448876499197","POINT (103.1982286 13.1027132)",9/25/2014 22:30:24
523.00,"608 Birgunj Parkway","","Taipei",116.00,"400","627425618482","POINT (0 0)",9/25/2014 22:33:14
524.00,"680 A Corua (La Corua) Manor","","Sivas",482.00,"49806","158326114853","POINT (37.0161184 39.7483357)",9/25/2014 22:33:28
525.00,"1949 Sanya Street","","Gumma",224.00,"61244","132100972047","POINT (139.2820607 36.3166712)",9/25/2014 22:31:47
526.00,"617 Klerksdorp Place","","Khanh Hoa",366.00,"94707","574973479129","POINT (109.1943229 12.2450777)",9/25/2014 22:34:07
527.00,"1993 0 Loop","","Liaoning",588.00,"41214","25865528181","POINT (122.2283366 40.6648207)",9/25/2014 22:30:49
528.00,"1176 Southend-on-Sea Manor","","Southern Tagalog",458.00,"81651","236679267178","POINT (0 0)",9/25/2014 22:32:39
529.00,"600 Purnea (Purnia) Avenue","","Nghe An",571.00,"18043","638409958875","POINT (105.6923295 18.6733755)",9/25/2014 22:34:07
530.00,"1003 Qinhuangdao Street","","West Java",419.00,"25972","35533115997","POINT (107.4433377 -6.5569419)",9/25/2014 22:31:35
531.00,"1986 Sivas Place","","Friuli-Venezia Giuli",551.00,"95775","182059202712","POINT (0 0)",9/25/2014 22:31:44
532.00,"1427 Tabuk Place","","Florida",101.00,"31342","214756839122","POINT (-81.9495397 26.5628558)",9/25/2014 22:33:47
533.00,"556 Asuncin Way","","Mogiljov",339.00,"35364","338244023543","POINT (30.3449906 53.9168017)",9/25/2014 22:30:13
534.00,"486 Ondo Parkway","","Benguela",67.00,"35202","105882218332","POINT (13.4054777 -12.5762601)",9/25/2014 22:30:02
535.00,"635 Brest Manor","","Andhra Pradesh",75.00,"40899","80593242951","POINT (81.5232261 16.5407813)",9/25/2014 22:31:13
536.00,"166 Jinchang Street","","Buenos Aires",165.00,"86760","717566026669","POINT (-58.5247236 -34.8541788)",9/25/2014 22:30:05
537.00,"958 Sagamihara Lane","","Mie",287.00,"88408","427274926505","POINT (136.7414816 35.0656572)",9/25/2014 22:31:50
538.00,"1817 Livorno Way","","Khanh Hoa",100.00,"79401","478380208348","POINT (109.1591345 11.9214404)",9/25/2014 22:34:05
539.00,"1332 Gaziantep Lane","","Shandong",80.00,"22813","383353187467","POINT (118.0166724 37.3666714)",9/25/2014 22:30:31
540.00,"949 Allende Lane","","Uttar Pradesh",24.00,"67521","122981120653","POINT (78.4698424 28.9031416)",9/25/2014 22:31:11
541.00,"195 Ilorin Street","","Chari-Baguirmi",363.00,"49250","8912935608","POINT (0 0)",9/25/2014 22:30:29
542.00,"193 Bhusawal Place","","Kang-won",539.00,"9750","745267607502","POINT (0 0)",9/25/2014 22:33:07
543.00,"43 Vilnius Manor","","Colorado",42.00,"79814","484500282381","POINT (-104.8319273 39.7294392)",9/25/2014 22:33:44
544.00,"183 Haiphong Street","","Jilin",46.00,"69953","488600270038","POINT (122.8207694 45.6074696)",9/25/2014 22:30:30
545.00,"163 Augusta-Richmond County Loop","","Carabobo",561.00,"33030","754579047924","POINT (-68.0076535 10.1620215)",9/25/2014 22:34:05
546.00,"191 Jos Azueta Parkway","","Ruse",436.00,"13629","932156667696","POINT (25.9708396 43.8563983)",9/25/2014 22:30:23
547.00,"379 Lublin Parkway","","Toscana",309.00,"74568","921960450089","POINT (10.3261593 43.5442712)",9/25/2014 22:31:44
548.00,"1658 Cuman Loop","","Sumatera Selatan",396.00,"51309","784907335610","POINT (106.1392227 -2.1631982)",9/25/2014 22:31:34
549.00,"454 Qinhuangdao Drive","","Tadla-Azilal",68.00,"25866","786270036240","POINT (-6.3498381 32.3372501)",9/25/2014 22:32:16
550.00,"1715 Okayama Street","","So Paulo",485.00,"55676","169352919175","POINT (0 0)",9/25/2014 22:30:22
551.00,"182 Nukualofa Drive","","Sumy",275.00,"15414","426346224043","POINT (33.2026378 51.2403234)",9/25/2014 22:33:32
552.00,"390 Wroclaw Way","","Hainan",462.00,"5753","357593328658","POINT (109.5053434 18.2430649)",9/25/2014 22:30:41
553.00,"1421 Quilmes Lane","","Ishikawa",260.00,"19151","135407755975","POINT (136.6255661 36.5944575)",9/25/2014 22:31:49
554.00,"947 Trshavn Place","","Central Luzon",528.00,"841","50898428626","POINT (120.5979478 15.4801751)",9/25/2014 22:32:40
555.00,"1764 Jalib al-Shuyukh Parkway","","Galicia",459.00,"77642","84794532510","POINT (-8.5456978 42.8805224)",9/25/2014 22:33:10
556.00,"346 Cam Ranh Avenue","","Zhejiang",599.00,"39976","978430786151","POINT (122.2046507 30.0107523)",9/25/2014 22:30:51
557.00,"1407 Pachuca de Soto Place","","Rio Grande do Sul",21.00,"26284","380077794770","POINT (-51.0371785 -29.9889766)",9/25/2014 22:30:14
558.00,"904 Clarksville Drive","","Zhejiang",193.00,"52234","955349440539","POINT (120.6715344 30.4784468)",9/25/2014 22:30:34
559.00,"1917 Kumbakonam Parkway","","Vojvodina",368.00,"11892","698182547686","POINT (0 0)",9/25/2014 22:34:11
560.00,"1447 Imus Place","","Gujarat",426.00,"12905","62127829280","POINT (70.7932213 22.2916123)",9/25/2014 22:31:25
561.00,"1497 Fengshan Drive","","KwaZulu-Natal",112.00,"63022","368738360376","POINT (30.8917545 -29.9186652)",9/25/2014 22:33:03
562.00,"869 Shikarpur Way","","England",496.00,"57380","590764256785","POINT (-3.0064812 53.6477943)",9/25/2014 22:33:40
563.00,"1059 Yuncheng Avenue","","Vilna",570.00,"47498","107092893983","POINT (25.2798673 54.6891639)",9/25/2014 22:31:58
564.00,"505 Madiun Boulevard","","Dolnoslaskie",577.00,"97271","970638808606","POINT (17.0333344 51.1381537)",9/25/2014 22:32:44
565.00,"1741 Hoshiarpur Boulevard","","al-Sharqiya",79.00,"22372","855066328617","POINT (0 0)",9/25/2014 22:30:56
566.00,"1229 Varanasi (Benares) Manor","","Buenos Aires",43.00,"40195","817740355461","POINT (-58.3333322 -34.6666718)",9/25/2014 22:30:04
567.00,"1894 Boa Vista Way","","Texas",178.00,"77464","239357986667","POINT (-96.6388889 32.9126221)",9/25/2014 22:33:51
568.00,"1342 Sharja Way","","Sokoto & Kebbi & Zam",488.00,"93655","946114054231","POINT (5.2390225 13.0609242)",9/25/2014 22:32:27
569.00,"1342 Abha Boulevard","","Bukarest",95.00,"10714","997453607116","POINT (26.1062619 44.4322532)",9/25/2014 22:32:46
570.00,"415 Pune Avenue","","Shandong",580.00,"44274","203202500108","POINT (117.7519451 35.9005687)",9/25/2014 22:30:47
571.00,"1746 Faaa Way","","Huanuco",214.00,"32515","863080561151","POINT (0 0)",9/25/2014 22:32:33
572.00,"539 Hami Way","","Tokat",538.00,"52196","525518075499","POINT (36.5544466 40.3138923)",9/25/2014 22:33:29
573.00,"1407 Surakarta Manor","","Moskova",466.00,"33224","324346485054","POINT (0 0)",9/25/2014 22:32:56
574.00,"502 Mandi Bahauddin Parkway","","Anzotegui",55.00,"15992","618156722572","POINT (0 0)",9/25/2014 22:34:03
575.00,"1052 Pathankot Avenue","","Sichuan",299.00,"77397","128499386727","POINT (103.7638641 29.5622781)",9/25/2014 22:30:39
576.00,"1351 Sousse Lane","","Coahuila de Zaragoza",341.00,"37815","203804046132","POINT (-101.4205638 26.9068718)",9/25/2014 22:32:10
577.00,"1501 Pangkal Pinang Avenue","","Mazowieckie",409.00,"943","770864062795","POINT (19.7063884 52.5468267)",9/25/2014 22:32:43
578.00,"1405 Hagonoy Avenue","","Slaskie",133.00,"86587","867287719310","POINT (19.1240921 50.7964658)",9/25/2014 22:32:42
579.00,"521 San Juan Bautista Tuxtepec Place","","Qaraghandy",598.00,"95093","844018348565","POINT (67.7666759 47.7833343)",9/25/2014 22:31:56
580.00,"923 Tangail Boulevard","","Tokyo-to",10.00,"33384","315528269898","POINT (139.3641857 35.7078256)",9/25/2014 22:31:45
581.00,"186 Skikda Lane","","Morelos",131.00,"89422","14465669789","POINT (-99.2307505 18.9261943)",9/25/2014 22:32:05
582.00,"1568 Celaya Parkway","","Kaohsiung",168.00,"34750","278669994384","POINT (0 0)",9/25/2014 22:33:15
583.00,"1489 Kakamigahara Lane","","Taipei",526.00,"98883","29341849811","POINT (0 0)",9/25/2014 22:33:16
584.00,"1819 Alessandria Loop","","Campeche",103.00,"53829","377633994405","POINT (-91.8299183 18.6459207)",9/25/2014 22:32:02
585.00,"1208 Tama Loop","","Ninawa",344.00,"73605","954786054144","POINT (43.1188962 36.3355174)",9/25/2014 22:31:40
586.00,"951 Springs Lane","","Central Mindanao",219.00,"96115","165164761435","POINT (0 0)",9/25/2014 22:32:37
587.00,"760 Miyakonojo Drive","","Guerrero",246.00,"64682","294449058179","POINT (0 0)",9/25/2014 22:32:08
588.00,"966 Asuncin Way","","Hidalgo",212.00,"62703","995527378381","POINT (-98.4194451 21.1405936)",9/25/2014 22:32:07
589.00,"1584 Ljubertsy Lane","","England",494.00,"22954","285710089439","POINT (-1.4042869 50.9039592)",9/25/2014 22:33:38
590.00,"247 Jining Parkway","","Banjul",54.00,"53446","170115379190","POINT (-16.5780366 13.4527495)",9/25/2014 22:31:04
591.00,"773 Dallas Manor","","Buenos Aires",424.00,"12664","914466027044","POINT (-58.2526595 -34.7241859)",9/25/2014 22:30:06
592.00,"1923 Stara Zagora Lane","","Nantou",546.00,"95179","182178609211","POINT (0 0)",9/25/2014 22:33:17
593.00,"1402 Zanzibar Boulevard","","Guanajuato",106.00,"71102","387448063440","POINT (-100.8157756 20.5235397)",9/25/2014 22:32:03
594.00,"1464 Kursk Parkway","","Shandong",574.00,"17381","338758048786","POINT (119.1019435 36.7120636)",9/25/2014 22:30:44
595.00,"1074 Sanaa Parkway","","Loja",311.00,"22474","154124128457","POINT (-79.2042279 -3.9931355)",9/25/2014 22:30:55
596.00,"1759 Niznekamsk Avenue","","al-Manama",14.00,"39414","864392582257","POINT (50.5832283 26.2153669)",9/25/2014 22:30:11
597.00,"32 Liaocheng Way","","Minas Gerais",248.00,"1944","410877354933","POINT (-43.3502807 -21.7641784)",9/25/2014 22:30:19
598.00,"42 Fontana Avenue","","Fejr",512.00,"14684","437829801725","POINT (0 0)",9/25/2014 22:31:09
599.00,"1895 Zhezqazghan Drive","","California",177.00,"36693","137809746111","POINT (-117.9414563 33.7739128)",9/25/2014 22:33:51
600.00,"1837 Kaduna Parkway","","Inner Mongolia",241.00,"82580","640843562301","POINT (113.1058305 41.0275874)",9/25/2014 22:30:37
601.00,"844 Bucuresti Place","","Liaoning",242.00,"36603","935952366111","POINT (121.7166704 39.1015975)",9/25/2014 22:30:37
602.00,"1101 Bucuresti Boulevard","","West Greece",401.00,"97661","199514580428","POINT (21.7344436 38.2444426)",9/25/2014 22:31:07
603.00,"1103 Quilmes Boulevard","","Piura",503.00,"52137","644021380889","POINT (-80.6852876 -4.9038955)",9/25/2014 22:32:34
604.00,"1331 Usak Boulevard","","Vaud",296.00,"61960","145308717464","POINT (6.6328266 46.5169343)",9/25/2014 22:33:14
605.00,"1325 Fukuyama Street","","Heilongjiang",537.00,"27107","288241215394","POINT (128.0449753 46.9804391)",9/25/2014 22:30:44
